{"type": "FeatureCollection", "features": [ {"type": "Feature", "properties": {"norad_id": 41836, "name": "HIMAWARI-9", "group": "weather", "lat": 0.01557558241576844, "lon": 168.88116614520177, "alt_km": 35787.182991559224, "timestamp": "2025-12-09T20:37:08.925800+00:00", "meta": {"OBJECT_NAME": "HIMAWARI-9", "OBJECT_ID": "2016-064A", "EPOCH": "2025-12-09T12:31:51.169728", "MEAN_MOTION": 1.00270181, "ECCENTRICITY": 0.00012997, "INCLINATION": 0.0229, "RA_OF_ASC_NODE": 74.0155, "ARG_OF_PERICENTER": 191.3363, "MEAN_ANOMALY": 141.8932, "EPHEMERIS_TYPE": 0, "CLASSIFICATION_TYPE": "U", "NORAD_CAT_ID": 41836, "ELEMENT_SET_NO": 999, "REV_AT_EPOCH": 3330, "BSTAR": 0, "MEAN_MOTION_DOT": -2.73e-06, "MEAN_MOTION_DDOT": 0}, "tle": {"line1": "1 41836U 16064A   25343.52212002 -.00000273  00000+0  00000+0 0  9991", "line2": "2 41836   0.0229  74.0155 0001299 191.3363 141.8932  1.00270181 33303"}}, "geometry": {"type": "Point", "coordinates": [168.88116614520177, 0.01557558241576844]}}, {"type": "Feature", "properties": {"norad_id": 41866, "name": "GOES 16", "group": "weather", "lat": -0.01765761622894311, "lon": -76.53453815535421, "alt_km": 35774.21557207318, "timestamp": "2025-12-09T20:37:08.925813+00:00", "meta": {"OBJECT_NAME": "GOES 16", "OBJECT_ID": "2016-071A", "EPOCH": "2025-12-09T12:17:01.093344", "MEAN_MOTION": 1.0026869, "ECCENTRICITY": 0.00032665, "INCLINATION": 0.0634, "RA_OF_ASC_NODE": 105.9696, "ARG_OF_PERICENTER": 154.5939, "MEAN_ANOMALY": 257.5193, "EPHEMERIS_TYPE": 0, "CLASSIFICATION_TYPE": "U", "NORAD_CAT_ID": 41866, "ELEMENT_SET_NO": 999, "REV_AT_EPOCH": 3320, "BSTAR": 0, "MEAN_MOTION_DOT": -8.8e-07, "MEAN_MOTION_DDOT": 0}, "tle": {"line1": "1 41866U 16071A   25343.51181821 -.00000088  00000+0  00000+0 0  9999", "line2": "2 41866   0.0634 105.9696 0003266 154.5939 257.5193  1.00268690 33201"}}, "geometry": {"type": "Point", "coordinates": [-76.53453815535421, -0.01765761622894311]}}, {"type": "Feature", "properties": {"norad_id": 41882, "name": "FENGYUN 4A", "group": "weather", "lat": 1.7301599863847914, "lon": 151.9156155676046, "alt_km": 35779.19134436028, "timestamp": "2025-12-09T20:37:08.925825+00:00", "meta": {"OBJECT_NAME": "FENGYUN 4A", "OBJECT_ID": "2016-077A", "EPOCH": "2025-12-08T17:16:38.775936", "MEAN_MOTION": 1.00275455, "ECCENTRICITY": 0.00049335, "INCLINATION": 1.839, "RA_OF_ASC_NODE": 82.4323, "ARG_OF_PERICENTER": 143.079, "MEAN_ANOMALY": 235.2066, "EPHEMERIS_TYPE": 0, "CLASSIFICATION_TYPE": "U", "NORAD_CAT_ID": 41882, "ELEMENT_SET_NO": 999, "REV_AT_EPOCH": 3302, "BSTAR": 0, "MEAN_MOTION_DOT": -3.55e-06, "MEAN_MOTION_DDOT": 0}, "tle": {"line1": "1 41882U 16077A   25342.71989324 -.00000355  00000+0  00000+0 0  9995", "line2": "2 41882   1.8390  82.4323 0004933 143.0790 235.2066  1.00275455 33022"}}, "geometry": {"type": "Point", "coordinates": [151.9156155676046, 1.7301599863847914]}}, {"type": "Feature", "properties": {"norad_id": 41884, "name": "CYGFM05", "group": "weather", "lat": 27.298285992758156, "lon": -161.6746128032992, "alt_km": 413.191072768459, "timestamp": "2025-12-09T20:37:08.925836+00:00", "meta": {"OBJECT_NAME": "CYGFM05", "OBJECT_ID": "2016-078A", "EPOCH": "2025-12-09T13:52:51.612960", "MEAN_MOTION": 15.47454273, "ECCENTRICITY": 0.00097033, "INCLINATION": 34.9598, "RA_OF_ASC_NODE": 67.7793, "ARG_OF_PERICENTER": 153.8808, "MEAN_ANOMALY": 206.2405, "EPHEMERIS_TYPE": 0, "CLASSIFICATION_TYPE": "U", "NORAD_CAT_ID": 41884, "ELEMENT_SET_NO": 999, "REV_AT_EPOCH": 49927, "BSTAR": 0.00049142457, "MEAN_MOTION_DOT": 0.0002606, "MEAN_MOTION_DDOT": 0}, "tle": {"line1": "1 41884U 16078A   25343.57837515  .00026060  00000+0  49142-3 0  9991", "line2": "2 41884  34.9598  67.7793 0009703 153.8808 206.2405 15.47454273499278"}}, "geometry": {"type": "Point", "coordinates": [-161.6746128032992, 27.298285992758156]}}, {"type": "Feature", "properties": {"norad_id": 41885, "name": "CYGFM04", "group": "weather", "lat": -12.434679341393004, "lon": 22.390928957633154, "alt_km": 422.05035258331554, "timestamp": "2025-12-09T20:37:08.925847+00:00", "meta": {"OBJECT_NAME": "CYGFM04", "OBJECT_ID": "2016-078B", "EPOCH": "2025-12-09T14:31:54.391296", "MEAN_MOTION": 15.50154602, "ECCENTRICITY": 0.00090666, "INCLINATION": 34.9356, "RA_OF_ASC_NODE": 42.4688, "ARG_OF_PERICENTER": 182.7404, "MEAN_ANOMALY": 177.327, "EPHEMERIS_TYPE": 0, "CLASSIFICATION_TYPE": "U", "NORAD_CAT_ID": 41885, "ELEMENT_SET_NO": 999, "REV_AT_EPOCH": 49945, "BSTAR": 0.00051178136, "MEAN_MOTION_DOT": 0.00029862, "MEAN_MOTION_DDOT": 0}, "tle": {"line1": "1 41885U 16078B   25343.60549064  .00029862  00000+0  51178-3 0  9990", "line2": "2 41885  34.9356  42.4688 0009066 182.7404 177.3270 15.50154602499454"}}, "geometry": {"type": "Point", "coordinates": [22.390928957633154, -12.434679341393004]}}, {"type": "Feature", "properties": {"norad_id": 41886, "name": "CYGFM02", "group": "weather", "lat": -13.108886647003953, "lon": 19.68697377988459, "alt_km": 419.1042799960205, "timestamp": "2025-12-09T20:37:08.925857+00:00", "meta": {"OBJECT_NAME": "CYGFM02", "OBJECT_ID": "2016-078C", "EPOCH": "2025-12-09T12:59:53.720736", "MEAN_MOTION": 15.51515915, "ECCENTRICITY": 0.00107501, "INCLINATION": 34.9444, "RA_OF_ASC_NODE": 41.2551, "ARG_OF_PERICENTER": 181.5445, "MEAN_ANOMALY": 178.5246, "EPHEMERIS_TYPE": 0, "CLASSIFICATION_TYPE": "U", "NORAD_CAT_ID": 41886, "ELEMENT_SET_NO": 999, "REV_AT_EPOCH": 49957, "BSTAR": 0.00051268919, "MEAN_MOTION_DOT": 0.00031436, "MEAN_MOTION_DDOT": 0}, "tle": {"line1": "1 41886U 16078C   25343.54159399  .00031436  00000+0  51269-3 0  9993", "line2": "2 41886  34.9444  41.2551 0010750 181.5445 178.5246 15.51515915499571"}}, "geometry": {"type": "Point", "coordinates": [19.68697377988459, -13.108886647003953]}}, {"type": "Feature", "properties": {"norad_id": 41887, "name": "CYGFM01", "group": "weather", "lat": 8.463277876892432, "lon": -123.98871136385603, "alt_km": 414.15096999272555, "timestamp": "2025-12-09T20:37:08.925867+00:00", "meta": {"OBJECT_NAME": "CYGFM01", "OBJECT_ID": "2016-078D", "EPOCH": "2025-12-09T15:16:01.554240", "MEAN_MOTION": 15.48030549, "ECCENTRICITY": 0.00092569, "INCLINATION": 34.9428, "RA_OF_ASC_NODE": 69.7736, "ARG_OF_PERICENTER": 146.0748, "MEAN_ANOMALY": 214.0567, "EPHEMERIS_TYPE": 0, "CLASSIFICATION_TYPE": "U", "NORAD_CAT_ID": 41887, "ELEMENT_SET_NO": 999, "REV_AT_EPOCH": 49922, "BSTAR": 0.00050950059, "MEAN_MOTION_DOT": 0.00027573, "MEAN_MOTION_DDOT": 0}, "tle": {"line1": "1 41887U 16078D   25343.63612910  .00027573  00000+0  50950-3 0  9990", "line2": "2 41887  34.9428  69.7736 0009256 146.0748 214.0567 15.48030549499220"}}, "geometry": {"type": "Point", "coordinates": [-123.98871136385603, 8.463277876892432]}}, {"type": "Feature", "properties": {"norad_id": 41888, "name": "CYGFM08", "group": "weather", "lat": -11.860870763107428, "lon": -111.15630553151239, "alt_km": 412.5718489610708, "timestamp": "2025-12-09T20:37:08.925878+00:00", "meta": {"OBJECT_NAME": "CYGFM08", "OBJECT_ID": "2016-078E", "EPOCH": "2025-12-09T13:34:13.028448", "MEAN_MOTION": 15.49223423, "ECCENTRICITY": 0.00111355, "INCLINATION": 34.9464, "RA_OF_ASC_NODE": 53.2643, "ARG_OF_PERICENTER": 169.9594, "MEAN_ANOMALY": 190.1352, "EPHEMERIS_TYPE": 0, "CLASSIFICATION_TYPE": "U", "NORAD_CAT_ID": 41888, "ELEMENT_SET_NO": 999, "REV_AT_EPOCH": 49944, "BSTAR": 0.00050551184, "MEAN_MOTION_DOT": 0.00028556, "MEAN_MOTION_DDOT": 0}, "tle": {"line1": "1 41888U 16078E   25343.56542857  .00028556  00000+0  50551-3 0  9994", "line2": "2 41888  34.9464  53.2643 0011135 169.9594 190.1352 15.49223423499444"}}, "geometry": {"type": "Point", "coordinates": [-111.15630553151239, -11.860870763107428]}}, {"type": "Feature", "properties": {"norad_id": 41890, "name": "CYGFM07", "group": "weather", "lat": -1.5181117636577242, "lon": -137.48712314521813, "alt_km": 409.9240750249528, "timestamp": "2025-12-09T20:37:08.925889+00:00", "meta": {"OBJECT_NAME": "CYGFM07", "OBJECT_ID": "2016-078G", "EPOCH": "2025-12-09T13:39:05.040576", "MEAN_MOTION": 15.4979977, "ECCENTRICITY": 0.00095532, "INCLINATION": 34.9481, "RA_OF_ASC_NODE": 42.2409, "ARG_OF_PERICENTER": 187.8232, "MEAN_ANOMALY": 172.2342, "EPHEMERIS_TYPE": 0, "CLASSIFICATION_TYPE": "U", "NORAD_CAT_ID": 41890, "ELEMENT_SET_NO": 999, "REV_AT_EPOCH": 49946, "BSTAR": 0.00050008284, "MEAN_MOTION_DOT": 0.00028813, "MEAN_MOTION_DDOT": 0}, "tle": {"line1": "1 41890U 16078G   25343.56880834  .00028813  00000+0  50008-3 0  9990", "line2": "2 41890  34.9481  42.2409 0009553 187.8232 172.2342 15.49799770499468"}}, "geometry": {"type": "Point", "coordinates": [-137.48712314521813, -1.5181117636577242]}}, {"type": "Feature", "properties": {"norad_id": 41891, "name": "CYGFM03", "group": "weather", "lat": 10.326536188203145, "lon": 57.38151340710177, "alt_km": 420.61384603614715, "timestamp": "2025-12-09T20:37:08.925900+00:00", "meta": {"OBJECT_NAME": "CYGFM03", "OBJECT_ID": "2016-078H", "EPOCH": "2025-12-09T14:21:23.160672", "MEAN_MOTION": 15.49703336, "ECCENTRICITY": 0.00088503, "INCLINATION": 34.9436, "RA_OF_ASC_NODE": 43.965, "ARG_OF_PERICENTER": 175.1445, "MEAN_ANOMALY": 184.9364, "EPHEMERIS_TYPE": 0, "CLASSIFICATION_TYPE": "U", "NORAD_CAT_ID": 41891, "ELEMENT_SET_NO": 999, "REV_AT_EPOCH": 49944, "BSTAR": 0.00050549229, "MEAN_MOTION_DOT": 0.00029019, "MEAN_MOTION_DDOT": 0}, "tle": {"line1": "1 41891U 16078H   25343.59818473  .00029019  00000+0  50549-3 0  9993", "line2": "2 41891  34.9436  43.9650 0008850 175.1445 184.9364 15.49703336499445"}}, "geometry": {"type": "Point", "coordinates": [57.38151340710177, 10.326536188203145]}}]}